start=new Date('2022-01-22T00:00:00.000Z').valueOf();
sats=[{"DECAY_DATE":null,"INCLINATION":"53.0528","CENTER_NAME":"EARTH","OBJECT_TYPE":"PAYLOAD","FILE":"3279324","LAUNCH_DATE":"2019-11-11","TIME_SYSTEM":"UTC","TLE_LINE1":"1 44753U 19074AS  22021.52917648 -.00000652  00000-0 -24897-4 0  9992","RA_OF_ASC_NODE":"117.0146","MEAN_MOTION_DDOT":"0.0000000000000","ECCENTRICITY":"0.00012840","MEAN_MOTION_DOT":"-0.00000652","EPOCH":"2022-01-21T12:42:00.847872","OBJECT_NAME":"STARLINK-1048","MEAN_ANOMALY":"276.2069","SITE":"AFETR","NORAD_CAT_ID":"44753","COUNTRY_CODE":"US","MEAN_ELEMENT_THEORY":"SGP4","ARG_OF_PERICENTER":"83.9066","REV_AT_EPOCH":"12143","SEMIMAJOR_AXIS":"6925.373","OBJECT_ID":"2019-074AS","MEAN_MOTION":"15.06391925","BSTAR":"-0.00002489700000","APOAPSIS":"548.128","REF_FRAME":"TEME","TLE_LINE2":"2 44753  53.0528 117.0146 0001284  83.9066 276.2069 15.06391925121439","ELEMENT_SET_NO":"999","PERIOD":"95.593","PERIAPSIS":"546.349","RCS_SIZE":"LARGE","GP_ID":"194326929","CLASSIFICATION_TYPE":"U","EPHEMERIS_TYPE":"0"},{"INCLINATION":"53.0549","DECAY_DATE":null,"TIME_SYSTEM":"UTC","CENTER_NAME":"EARTH","OBJECT_TYPE":"PAYLOAD","LAUNCH_DATE":"2019-11-11","FILE":"3279324","MEAN_MOTION_DDOT":"0.0000000000000","ECCENTRICITY":"0.00012380","RA_OF_ASC_NODE":"117.0053","TLE_LINE1":"1 44754U 19074AT  22021.53285481 -.00001215  00000-0 -62698-4 0  9994","MEAN_MOTION_DOT":"-0.00001215","EPOCH":"2022-01-21T12:47:18.655584","OBJECT_NAME":"STARLINK-1049","COUNTRY_CODE":"US","NORAD_CAT_ID":"44754","MEAN_ELEMENT_THEORY":"SGP4","ARG_OF_PERICENTER":"92.9993","MEAN_ANOMALY":"267.1138","SITE":"AFETR","REV_AT_EPOCH":"12143","OBJECT_ID":"2019-074AT","SEMIMAJOR_AXIS":"6925.359","REF_FRAME":"TEME","APOAPSIS":"548.081","TLE_LINE2":"2 44754  53.0549 117.0053 0001238  92.9993 267.1138 15.06396677121433","MEAN_MOTION":"15.06396677","BSTAR":"-0.00006269800000","RCS_SIZE":"LARGE","PERIAPSIS":"546.366","ELEMENT_SET_NO":"999","PERIOD":"95.592","CLASSIFICATION_TYPE":"U","GP_ID":"194327679","EPHEMERIS_TYPE":"0"},{"DECAY_DATE":null,"INCLINATION":"53.0457","OBJECT_TYPE":"PAYLOAD","CENTER_NAME":"EARTH","LAUNCH_DATE":"2019-11-11","FILE":"3279356","TIME_SYSTEM":"UTC","TLE_LINE1":"1 44755U 19074AU  22021.79692654  .00617656  00000-0  17231-1 0  9997","RA_OF_ASC_NODE":"154.5600","MEAN_MOTION_DDOT":"0.0000000000000","ECCENTRICITY":"0.00011690","MEAN_MOTION_DOT":"0.00617656","OBJECT_NAME":"STARLINK-1050","EPOCH":"2022-01-21T19:07:34.453056","MEAN_ANOMALY":"300.9909","SITE":"AFETR","COUNTRY_CODE":"US","NORAD_CAT_ID":"44755","ARG_OF_PERICENTER":"59.1206","MEAN_ELEMENT_THEORY":"SGP4","REV_AT_EPOCH":"12111","OBJECT_ID":"2019-074AU","SEMIMAJOR_AXIS":"6841.849","MEAN_MOTION":"15.34060540","BSTAR":"0.01723100000000","REF_FRAME":"TEME","APOAPSIS":"464.514","TLE_LINE2":"2 44755  53.0457 154.5600 0001169  59.1206 300.9909 15.34060540121116","ELEMENT_SET_NO":"999","PERIOD":"93.869","PERIAPSIS":"462.915","RCS_SIZE":"LARGE","GP_ID":"194332906","CLASSIFICATION_TYPE":"U","EPHEMERIS_TYPE":"0"},{"REV_AT_EPOCH":"12116","MEAN_ANOMALY":"284.8952","SITE":"AFETR","COUNTRY_CODE":"US","MEAN_ELEMENT_THEORY":"SGP4","NORAD_CAT_ID":"44757","ARG_OF_PERICENTER":"75.2193","SEMIMAJOR_AXIS":"6925.376","OBJECT_ID":"2019-074AW","ELEMENT_SET_NO":"999","PERIOD":"95.593","RCS_SIZE":"LARGE","PERIAPSIS":"546.266","MEAN_MOTION":"15.06391171","BSTAR":"-0.00001869800000","REF_FRAME":"TEME","APOAPSIS":"548.215","TLE_LINE2":"2 44757  53.0558 136.6922 0001407  75.2193 284.8952 15.06391171121166","CLASSIFICATION_TYPE":"U","GP_ID":"194326675","EPHEMERIS_TYPE":"0","CENTER_NAME":"EARTH","OBJECT_TYPE":"PAYLOAD","FILE":"3279324","LAUNCH_DATE":"2019-11-11","TIME_SYSTEM":"UTC","DECAY_DATE":null,"INCLINATION":"53.0558","RA_OF_ASC_NODE":"136.6922","TLE_LINE1":"1 44757U 19074AW  22021.60104915 -.00000560  00000-0 -18698-4 0  9990","MEAN_MOTION_DDOT":"0.0000000000000","ECCENTRICITY":"0.00014070","EPOCH":"2022-01-21T14:25:30.646560","OBJECT_NAME":"STARLINK-1052","MEAN_MOTION_DOT":"-0.00000560"},{"MEAN_MOTION_DDOT":"0.0000000000000","ECCENTRICITY":"0.00017340","TLE_LINE1":"1 44758U 19074AX  22021.60931100  .00000632  00000-0  61320-4 0  9993","RA_OF_ASC_NODE":"156.6522","TIME_SYSTEM":"UTC","CENTER_NAME":"EARTH","OBJECT_TYPE":"PAYLOAD","LAUNCH_DATE":"2019-11-11","FILE":"3279324","INCLINATION":"53.0556","DECAY_DATE":null,"EPOCH":"2022-01-21T14:37:24.470400","OBJECT_NAME":"STARLINK-1053","MEAN_MOTION_DOT":"0.00000632","SEMIMAJOR_AXIS":"6925.371","OBJECT_ID":"2019-074AX","REV_AT_EPOCH":"12089","COUNTRY_CODE":"US","NORAD_CAT_ID":"44758","MEAN_ELEMENT_THEORY":"SGP4","ARG_OF_PERICENTER":"77.4620","MEAN_ANOMALY":"282.6563","SITE":"AFETR","GP_ID":"194327429","CLASSIFICATION_TYPE":"U","EPHEMERIS_TYPE":"0","RCS_SIZE":"LARGE","PERIAPSIS":"546.035","ELEMENT_SET_NO":"999","PERIOD":"95.593","APOAPSIS":"548.437","REF_FRAME":"TEME","TLE_LINE2":"2 44758  53.0556 156.6522 0001734  77.4620 282.6563 15.06392770120894","MEAN_MOTION":"15.06392770","BSTAR":"0.00006132000000"},{"OBJECT_NAME":"STARLINK-1054","EPOCH":"2022-01-21T14:22:51.391488","MEAN_MOTION_DOT":"-0.00001473","MEAN_MOTION_DDOT":"0.0000000000000","ECCENTRICITY":"0.00016410","RA_OF_ASC_NODE":"156.7133","TLE_LINE1":"1 44759U 19074AY  22021.59920592 -.00001473  00000-0 -80013-4 0  9991","TIME_SYSTEM":"UTC","OBJECT_TYPE":"PAYLOAD","CENTER_NAME":"EARTH","LAUNCH_DATE":"2019-11-11","FILE":"3279324","INCLINATION":"53.0548","DECAY_DATE":null,"GP_ID":"194327180","CLASSIFICATION_TYPE":"U","EPHEMERIS_TYPE":"0","PERIAPSIS":"546.110","RCS_SIZE":"LARGE","ELEMENT_SET_NO":"999","PERIOD":"95.593","APOAPSIS":"548.383","REF_FRAME":"TEME","TLE_LINE2":"2 44759  53.0548 156.7133 0001641  85.6559 274.4617 15.06389291118535","MEAN_MOTION":"15.06389291","BSTAR":"-0.00008001300000","SEMIMAJOR_AXIS":"6925.381","OBJECT_ID":"2019-074AY","REV_AT_EPOCH":"11853","COUNTRY_CODE":"US","MEAN_ELEMENT_THEORY":"SGP4","ARG_OF_PERICENTER":"85.6559","NORAD_CAT_ID":"44759","MEAN_ANOMALY":"274.4617","SITE":"AFETR"},{"SEMIMAJOR_AXIS":"6925.352","OBJECT_ID":"2019-074AZ","SITE":"AFETR","MEAN_ANOMALY":"273.4685","COUNTRY_CODE":"US","MEAN_ELEMENT_THEORY":"SGP4","NORAD_CAT_ID":"44760","ARG_OF_PERICENTER":"86.6495","REV_AT_EPOCH":"12089","EPHEMERIS_TYPE":"0","CLASSIFICATION_TYPE":"U","GP_ID":"194326430","BSTAR":"0.00010217000000","MEAN_MOTION":"15.06398992","TLE_LINE2":"2 44760  53.0539 156.7589 0001668  86.6495 273.4685 15.06398992120895","APOAPSIS":"548.372","REF_FRAME":"TEME","PERIOD":"95.592","ELEMENT_SET_NO":"999","RCS_SIZE":"LARGE","PERIAPSIS":"546.061","RA_OF_ASC_NODE":"156.7589","TLE_LINE1":"1 44760U 19074AZ  22021.58445271  .00001241  00000-0  10217-3 0  9997","ECCENTRICITY":"0.00016680","MEAN_MOTION_DDOT":"0.0000000000000","DECAY_DATE":null,"INCLINATION":"53.0539","LAUNCH_DATE":"2019-11-11","FILE":"3279324","OBJECT_TYPE":"PAYLOAD","CENTER_NAME":"EARTH","TIME_SYSTEM":"UTC","MEAN_MOTION_DOT":"0.00001241","OBJECT_NAME":"STARLINK-1055","EPOCH":"2022-01-21T14:01:36.714144"},{"ECCENTRICITY":"0.00018100","MEAN_MOTION_DDOT":"0.0000000000000","TLE_LINE1":"1 44761U 19074BA  22021.79456347 -.00001157  00000-0 -58784-4 0  9997","RA_OF_ASC_NODE":"155.8232","DECAY_DATE":null,"INCLINATION":"53.0539","TIME_SYSTEM":"UTC","FILE":"3279491","LAUNCH_DATE":"2019-11-11","OBJECT_TYPE":"PAYLOAD","CENTER_NAME":"EARTH","MEAN_MOTION_DOT":"-0.00001157","EPOCH":"2022-01-21T19:04:10.283808","OBJECT_NAME":"STARLINK-1056","OBJECT_ID":"2019-074BA","SEMIMAJOR_AXIS":"6925.390","COUNTRY_CODE":"US","MEAN_ELEMENT_THEORY":"SGP4","ARG_OF_PERICENTER":"74.3025","NORAD_CAT_ID":"44761","SITE":"AFETR","MEAN_ANOMALY":"285.8164","REV_AT_EPOCH":"12109","EPHEMERIS_TYPE":"0","GP_ID":"194335750","CLASSIFICATION_TYPE":"U","TLE_LINE2":"2 44761  53.0539 155.8232 0001810  74.3025 285.8164 15.06386507121094","APOAPSIS":"548.508","REF_FRAME":"TEME","BSTAR":"-0.00005878400000","MEAN_MOTION":"15.06386507","PERIAPSIS":"546.001","RCS_SIZE":"LARGE","PERIOD":"95.593","ELEMENT_SET_NO":"999"},{"GP_ID":"194326930","CLASSIFICATION_TYPE":"U","EPHEMERIS_TYPE":"0","ELEMENT_SET_NO":"999","PERIOD":"95.593","RCS_SIZE":"LARGE","PERIAPSIS":"546.240","MEAN_MOTION":"15.06387328","BSTAR":"-0.00006070400000","REF_FRAME":"TEME","APOAPSIS":"548.265","TLE_LINE2":"2 44762  53.0530 136.6991 0001462  81.2632 278.8522 15.06387328121169","OBJECT_ID":"2019-074BB","SEMIMAJOR_AXIS":"6925.387","REV_AT_EPOCH":"12116","SITE":"AFETR","MEAN_ANOMALY":"278.8522","COUNTRY_CODE":"US","MEAN_ELEMENT_THEORY":"SGP4","ARG_OF_PERICENTER":"81.2632","NORAD_CAT_ID":"44762","OBJECT_NAME":"STARLINK-1057","EPOCH":"2022-01-21T14:20:12.370560","MEAN_MOTION_DOT":"-0.00001185","TLE_LINE1":"1 44762U 19074BB  22021.59736540 -.00001185  00000-0 -60704-4 0  9998","RA_OF_ASC_NODE":"136.6991","MEAN_MOTION_DDOT":"0.0000000000000","ECCENTRICITY":"0.00014620","OBJECT_TYPE":"PAYLOAD","CENTER_NAME":"EARTH","FILE":"3279324","LAUNCH_DATE":"2019-11-11","TIME_SYSTEM":"UTC","INCLINATION":"53.0530","DECAY_DATE":null},{"OBJECT_ID":"2019-074BC","SEMIMAJOR_AXIS":"6925.389","REV_AT_EPOCH":"12088","SITE":"AFETR","MEAN_ANOMALY":"280.5169","COUNTRY_CODE":"US","MEAN_ELEMENT_THEORY":"SGP4","NORAD_CAT_ID":"44763","ARG_OF_PERICENTER":"79.5981","EPHEMERIS_TYPE":"0","CLASSIFICATION_TYPE":"U","GP_ID":"194327680","PERIOD":"95.593","ELEMENT_SET_NO":"999","PERIAPSIS":"546.262","RCS_SIZE":"LARGE","BSTAR":"-0.00000365640000","MEAN_MOTION":"15.06386679","TLE_LINE2":"2 44763  53.0553 156.9262 0001433  79.5981 280.5169 15.06386679120889","REF_FRAME":"TEME","APOAPSIS":"548.247","TLE_LINE1":"1 44763U 19074BC  22021.55128905 -.00000336  00000-0 -36564-5 0  9990","RA_OF_ASC_NODE":"156.9262","ECCENTRICITY":"0.00014330","MEAN_MOTION_DDOT":"0.0000000000000","FILE":"3279324","LAUNCH_DATE":"2019-11-11","OBJECT_TYPE":"PAYLOAD","CENTER_NAME":"EARTH","TIME_SYSTEM":"UTC","INCLINATION":"53.0553","DECAY_DATE":null,"EPOCH":"2022-01-21T13:13:51.373920","OBJECT_NAME":"STARLINK-1058","MEAN_MOTION_DOT":"-0.00000336"}];
